[{"OBJECT_NAME":"STARLINK-32903","OBJECT_ID":"2025-037P","EPOCH":"2026-03-09T22:27:32.189472","MEAN_MOTION":14.98330911,"ECCENTRICITY":0.00025085,"INCLINATION":70.0033,"RA_OF_ASC_NODE":353.6478,"ARG_OF_PERICENTER":276.6623,"MEAN_ANOMALY":83.425,"EPHEMERIS_TYPE":0,"CLASSIFICATION_TYPE":"U","NORAD_CAT_ID":63090,"ELEMENT_SET_NO":999,"REV_AT_EPOCH":5850,"BSTAR":0.0004471467,"MEAN_MOTION_DOT":5.246e-5,"MEAN_MOTION_DDOT":0},{"OBJECT_NAME":"CZ-4B R\/B","OBJECT_ID":"2014-079B","EPOCH":"2026-03-09T22:52:27.338880","MEAN_MOTION":15.04904185,"ECCENTRICITY":0.01415279,"INCLINATION":98.4648,"RA_OF_ASC_NODE":154.7469,"ARG_OF_PERICENTER":308.4035,"MEAN_ANOMALY":50.4548,"EPHEMERIS_TYPE":0,"CLASSIFICATION_TYPE":"U","NORAD_CAT_ID":40337,"ELEMENT_SET_NO":999,"REV_AT_EPOCH":61279,"BSTAR":0.00019142184,"MEAN_MOTION_DOT":3.298e-5,"MEAN_MOTION_DDOT":0}]
